{
  "type": "FeatureCollection",
  "features": [
    {
      "type": "Feature",
      "properties": {
        "norad_id": 32101,
        "name": "FENGYUN 1C DEB",
        "group": "fengyun-1c-debris",
        "lat": 80.96373196809397,
        "lon": 146.12135806109416,
        "alt_km": 969.30924525918,
        "timestamp": "2025-12-02T21:34:01.556415+00:00",
        "meta_object_name": "FENGYUN 1C DEB",
        "meta_object_id": "1999-025CQT",
        "meta_epoch": "2025-12-02T10:51:08.225856",
        "meta_mean_motion": 14.0154371,
        "meta_eccentricity": 0.0121802,
        "meta_inclination": 99.0307,
        "meta_ra_of_asc_node": 235.6114,
        "meta_arg_of_pericenter": 267.4856,
        "meta_mean_anomaly": 91.2361,
        "meta_ephemeris_type": 0,
        "meta_classification_type": "U",
        "meta_norad_cat_id": 32101,
        "meta_element_set_no": 999,
        "meta_rev_at_epoch": 93038,
        "meta_bstar": 0.0026975,
        "meta_mean_motion_dot": 4.309e-05,
        "meta_mean_motion_ddot": 0,
        "tle_line1": "1 32101U 99025CQT 25336.45217854  .00004309  00000+0  26975-2 0  9993",
        "tle_line2": "2 32101  99.0307 235.6114 0121802 267.4856  91.2361 14.01543710930382"
      },
      "geometry": {
        "type": "Point",
        "coordinates": [
          146.12135806109416,
          80.96373196809397
        ]
      }
    },
    {
      "type": "Feature",
      "properties": {
        "norad_id": 32105,
        "name": "FENGYUN 1C DEB",
        "group": "fengyun-1c-debris",
        "lat": 40.29511162719063,
        "lon": -46.55456747404706,
        "alt_km": 924.6819155634257,
        "timestamp": "2025-12-02T21:34:01.556425+00:00",
        "meta_object_name": "FENGYUN 1C DEB",
        "meta_object_id": "1999-025CQX",
        "meta_epoch": "2025-11-28T04:29:43.050912",
        "meta_mean_motion": 13.40179437,
        "meta_eccentricity": 0.03936416,
        "meta_inclination": 103.4627,
        "meta_ra_of_asc_node": 318.9152,
        "meta_arg_of_pericenter": 105.6195,
        "meta_mean_anomaly": 258.8715,
        "meta_ephemeris_type": 0,
        "meta_classification_type": "U",
        "meta_norad_cat_id": 32105,
        "meta_element_set_no": 999,
        "meta_rev_at_epoch": 59516,
        "meta_bstar": 0.0026659689,
        "meta_mean_motion_dot": 2.224e-05,
        "meta_mean_motion_ddot": 0,
        "tle_line1": "1 32105U 99025CQX 25332.18730383  .00002224  00000+0  26660-2 0  9995",
        "tle_line2": "2 32105 103.4627 318.9152 0393641 105.6195 258.8715 13.40179437595169"
      },
      "geometry": {
        "type": "Point",
        "coordinates": [
          -46.55456747404706,
          40.29511162719063
        ]
      }
    },
    {
      "type": "Feature",
      "properties": {
        "norad_id": 32106,
        "name": "FENGYUN 1C DEB",
        "group": "fengyun-1c-debris",
        "lat": 22.45871740966217,
        "lon": 130.08121247532213,
        "alt_km": 800.4822655507687,
        "timestamp": "2025-12-02T21:34:01.556436+00:00",
        "meta_object_name": "FENGYUN 1C DEB",
        "meta_object_id": "1999-025CQY",
        "meta_epoch": "2025-12-01T04:26:59.805888",
        "meta_mean_motion": 14.26624695,
        "meta_eccentricity": 0.01094883,
        "meta_inclination": 101.4616,
        "meta_ra_of_asc_node": 303.0332,
        "meta_arg_of_pericenter": 72.2765,
        "meta_mean_anomaly": 289.032,
        "meta_ephemeris_type": 0,
        "meta_classification_type": "U",
        "meta_norad_cat_id": 32106,
        "meta_element_set_no": 999,
        "meta_rev_at_epoch": 69227,
        "meta_bstar": 0.0038557998,
        "meta_mean_motion_dot": 9.872e-05,
        "meta_mean_motion_ddot": 0,
        "tle_line1": "1 32106U 99025CQY 25335.18541442  .00009872  00000+0  38558-2 0  9990",
        "tle_line2": "2 32106 101.4616 303.0332 0109488  72.2765 289.0320 14.26624695692271"
      },
      "geometry": {
        "type": "Point",
        "coordinates": [
          130.08121247532213,
          22.45871740966217
        ]
      }
    },
    {
      "type": "Feature",
      "properties": {
        "norad_id": 32109,
        "name": "FENGYUN 1C DEB",
        "group": "fengyun-1c-debris",
        "lat": 61.08538617356183,
        "lon": -158.65888588706875,
        "alt_km": 745.6470998538125,
        "timestamp": "2025-12-02T21:34:01.556446+00:00",
        "meta_object_name": "FENGYUN 1C DEB",
        "meta_object_id": "1999-025CRB",
        "meta_epoch": "2025-11-27T22:22:45.612768",
        "meta_mean_motion": 14.3384742,
        "meta_eccentricity": 0.0206758,
        "meta_inclination": 98.3601,
        "meta_ra_of_asc_node": 211.977,
        "meta_arg_of_pericenter": 356.4894,
        "meta_mean_anomaly": 3.4829,
        "meta_ephemeris_type": 0,
        "meta_classification_type": "U",
        "meta_norad_cat_id": 32109,
        "meta_element_set_no": 999,
        "meta_rev_at_epoch": 64676,
        "meta_bstar": 0.00064211,
        "meta_mean_motion_dot": 2.222e-05,
        "meta_mean_motion_ddot": 0,
        "tle_line1": "1 32109U 99025CRB 25331.93247237  .00002222  00000+0  64211-3 0  9995",
        "tle_line2": "2 32109  98.3601 211.9770 0206758 356.4894   3.4829 14.33847420646769"
      },
      "geometry": {
        "type": "Point",
        "coordinates": [
          -158.65888588706875,
          61.08538617356183
        ]
      }
    },
    {
      "type": "Feature",
      "properties": {
        "norad_id": 32110,
        "name": "FENGYUN 1C DEB",
        "group": "fengyun-1c-debris",
        "lat": -76.69928011651601,
        "lon": -80.19249399858327,
        "alt_km": 819.8256392500916,
        "timestamp": "2025-12-02T21:34:01.556456+00:00",
        "meta_object_name": "FENGYUN 1C DEB",
        "meta_object_id": "1999-025CRC",
        "meta_epoch": "2025-12-02T10:24:15.105024",
        "meta_mean_motion": 14.28773451,
        "meta_eccentricity": 0.0033172,
        "meta_inclination": 99.5432,
        "meta_ra_of_asc_node": 144.6648,
        "meta_arg_of_pericenter": 36.7876,
        "meta_mean_anomaly": 353.0914,
        "meta_ephemeris_type": 0,
        "meta_classification_type": "U",
        "meta_norad_cat_id": 32110,
        "meta_element_set_no": 999,
        "meta_rev_at_epoch": 64241,
        "meta_bstar": 0.0019199,
        "meta_mean_motion_dot": 4.816e-05,
        "meta_mean_motion_ddot": 0,
        "tle_line1": "1 32110U 99025CRC 25336.43350816  .00004816  00000+0  19199-2 0  9990",
        "tle_line2": "2 32110  99.5432 144.6648 0033172  36.7876 353.0914 14.28773451642411"
      },
      "geometry": {
        "type": "Point",
        "coordinates": [
          -80.19249399858327,
          -76.69928011651601
        ]
      }
    },
    {
      "type": "Feature",
      "properties": {
        "norad_id": 32111,
        "name": "FENGYUN 1C DEB",
        "group": "fengyun-1c-debris",
        "lat": 14.121349997159328,
        "lon": 159.0398655919199,
        "alt_km": 755.5275502201339,
        "timestamp": "2025-12-02T21:34:01.556466+00:00",
        "meta_object_name": "FENGYUN 1C DEB",
        "meta_object_id": "1999-025CRD",
        "meta_epoch": "2025-12-01T18:46:27.916320",
        "meta_mean_motion": 14.31523108,
        "meta_eccentricity": 0.01192533,
        "meta_inclination": 98.4435,
        "meta_ra_of_asc_node": 335.8125,
        "meta_arg_of_pericenter": 237.5229,
        "meta_mean_anomaly": 299.5029,
        "meta_ephemeris_type": 0,
        "meta_classification_type": "U",
        "meta_norad_cat_id": 32111,
        "meta_element_set_no": 999,
        "meta_rev_at_epoch": 95874,
        "meta_bstar": 0.00024661709,
        "meta_mean_motion_dot": 6.64e-06,
        "meta_mean_motion_ddot": 0,
        "tle_line1": "1 32111U 99025CRD 25335.78226755  .00000664  00000+0  24662-3 0  9991",
        "tle_line2": "2 32111  98.4435 335.8125 0119253 237.5229 299.5029 14.31523108958748"
      },
      "geometry": {
        "type": "Point",
        "coordinates": [
          159.0398655919199,
          14.121349997159328
        ]
      }
    },
    {
      "type": "Feature",
      "properties": {
        "norad_id": 32113,
        "name": "FENGYUN 1C DEB",
        "group": "fengyun-1c-debris",
        "lat": -77.63321005015938,
        "lon": 58.3621684508424,
        "alt_km": 762.2473032214075,
        "timestamp": "2025-12-02T21:34:01.556476+00:00",
        "meta_object_name": "FENGYUN 1C DEB",
        "meta_object_id": "1999-025CRF",
        "meta_epoch": "2025-12-01T20:07:13.938528",
        "meta_mean_motion": 13.9450729,
        "meta_eccentricity": 0.02376048,
        "meta_inclination": 99.0283,
        "meta_ra_of_asc_node": 10.8448,
        "meta_arg_of_pericenter": 256.5436,
        "meta_mean_anomaly": 100.9147,
        "meta_ephemeris_type": 0,
        "meta_classification_type": "U",
        "meta_norad_cat_id": 32113,
        "meta_element_set_no": 999,
        "meta_rev_at_epoch": 62734,
        "meta_bstar": 0.00090775002,
        "meta_mean_motion_dot": 1.486e-05,
        "meta_mean_motion_ddot": 0,
        "tle_line1": "1 32113U 99025CRF 25335.83835577  .00001486  00000+0  90775-3 0  9998",
        "tle_line2": "2 32113  99.0283  10.8448 0237604 256.5436 100.9147 13.94507290627345"
      },
      "geometry": {
        "type": "Point",
        "coordinates": [
          58.3621684508424,
          -77.63321005015938
        ]
      }
    }
  ]
}